start=new Date('2022-05-28T00:00:00.000Z').valueOf();
sats=[{"PERIAPSIS":"348.831","OBJECT_ID":"2022-052M","REF_FRAME":"TEME","SITE":"AFETR","NORAD_CAT_ID":"52609","TLE_LINE1":"1 52609U 22052M   22147.91668981 -.00059961  00000-0 -42491-3 0  9992","MEAN_MOTION":"15.73252058","ELEMENT_SET_NO":"999","CLASSIFICATION_TYPE":"U","EPOCH":"2022-05-27T22:00:01.999584","PERIOD":"91.530","OBJECT_NAME":"STARLINK-3997","FILE":"3468079","REV_AT_EPOCH":"130","RA_OF_ASC_NODE":"14.8850","OBJECT_TYPE":"PAYLOAD","SEMIMAJOR_AXIS":"6727.747","MEAN_ANOMALY":"16.1502","CENTER_NAME":"EARTH","DECAY_DATE":null,"LAUNCH_DATE":"2022-05-14","APOAPSIS":"350.392","BSTAR":"-0.00042491000000","TLE_LINE2":"2 52609  53.2151  14.8850 0001160 113.6091  16.1502 15.73252058  1303","MEAN_ELEMENT_THEORY":"SGP4","RCS_SIZE":null,"ARG_OF_PERICENTER":"113.6091","COUNTRY_CODE":"US","EPHEMERIS_TYPE":"0","MEAN_MOTION_DOT":"-0.00059961","INCLINATION":"53.2151","ECCENTRICITY":"0.00011600","TIME_SYSTEM":"UTC","GP_ID":"204718587","MEAN_MOTION_DDOT":"0.0000000000000"},{"MEAN_MOTION_DDOT":"0.0000000000000","TIME_SYSTEM":"UTC","GP_ID":"204718795","INCLINATION":"53.2174","ECCENTRICITY":"0.00011380","MEAN_MOTION_DOT":"-0.00831820","EPHEMERIS_TYPE":"0","COUNTRY_CODE":"US","ARG_OF_PERICENTER":"83.5651","RCS_SIZE":null,"MEAN_ELEMENT_THEORY":"SGP4","TLE_LINE2":"2 52610  53.2174  14.8907 0001138  83.5651  33.6701 15.69957838  1303","APOAPSIS":"359.786","BSTAR":"-0.00750170000000","LAUNCH_DATE":"2022-05-14","DECAY_DATE":null,"CENTER_NAME":"EARTH","MEAN_ANOMALY":"33.6701","SEMIMAJOR_AXIS":"6737.155","OBJECT_TYPE":"PAYLOAD","RA_OF_ASC_NODE":"14.8907","REV_AT_EPOCH":"130","FILE":"3468079","OBJECT_NAME":"STARLINK-3998","PERIOD":"91.722","EPOCH":"2022-05-27T22:00:01.999584","CLASSIFICATION_TYPE":"U","ELEMENT_SET_NO":"999","TLE_LINE1":"1 52610U 22052N   22147.91668981 -.00831820  00000-0 -75017-2 0  9995","MEAN_MOTION":"15.69957838","NORAD_CAT_ID":"52610","SITE":"AFETR","REF_FRAME":"TEME","OBJECT_ID":"2022-052N","PERIAPSIS":"358.253"},{"OBJECT_ID":"2022-052P","PERIAPSIS":"351.937","NORAD_CAT_ID":"52611","REF_FRAME":"TEME","SITE":"AFETR","TLE_LINE1":"1 52611U 22052P   22147.89551213 -.00434081  00000-0 -36233-2 0  9997","ELEMENT_SET_NO":"999","MEAN_MOTION":"15.70583168","CLASSIFICATION_TYPE":"U","EPOCH":"2022-05-27T21:29:32.248032","FILE":"3468079","OBJECT_NAME":"STARLINK-3980","PERIOD":"91.686","REV_AT_EPOCH":"207","RA_OF_ASC_NODE":"15.0074","OBJECT_TYPE":"PAYLOAD","SEMIMAJOR_AXIS":"6735.366","MEAN_ANOMALY":"355.5167","CENTER_NAME":"EARTH","DECAY_DATE":null,"LAUNCH_DATE":"2022-05-14","APOAPSIS":"362.525","BSTAR":"-0.00362330000000","MEAN_ELEMENT_THEORY":"SGP4","TLE_LINE2":"2 52611  53.2151  15.0074 0007860   4.5923 355.5167 15.70583168  2070","RCS_SIZE":null,"ARG_OF_PERICENTER":"4.5923","COUNTRY_CODE":"US","EPHEMERIS_TYPE":"0","MEAN_MOTION_DOT":"-0.00434081","INCLINATION":"53.2151","ECCENTRICITY":"0.00078600","GP_ID":"204718690","TIME_SYSTEM":"UTC","MEAN_MOTION_DDOT":"0.0000000000000"},{"MEAN_MOTION_DDOT":"0.0000000000000","GP_ID":"204719314","TIME_SYSTEM":"UTC","ECCENTRICITY":"0.00010030","INCLINATION":"53.2153","MEAN_MOTION_DOT":"-0.00053799","EPHEMERIS_TYPE":"0","COUNTRY_CODE":"US","ARG_OF_PERICENTER":"107.1367","RCS_SIZE":null,"TLE_LINE2":"2 52612  53.2153  14.8864 0001003 107.1367  22.1323 15.73208846  1308","MEAN_ELEMENT_THEORY":"SGP4","BSTAR":"-0.00038122000000","APOAPSIS":"350.410","LAUNCH_DATE":"2022-05-14","DECAY_DATE":null,"CENTER_NAME":"EARTH","MEAN_ANOMALY":"22.1323","SEMIMAJOR_AXIS":"6727.870","OBJECT_TYPE":"PAYLOAD","RA_OF_ASC_NODE":"14.8864","REV_AT_EPOCH":"130","OBJECT_NAME":"STARLINK-4002","PERIOD":"91.533","FILE":"3468079","EPOCH":"2022-05-27T22:00:01.999584","CLASSIFICATION_TYPE":"U","MEAN_MOTION":"15.73208846","TLE_LINE1":"1 52612U 22052Q   22147.91668981 -.00053799  00000-0 -38122-3 0  9995","ELEMENT_SET_NO":"999","REF_FRAME":"TEME","SITE":"AFETR","NORAD_CAT_ID":"52612","OBJECT_ID":"2022-052Q","PERIAPSIS":"349.060"},{"ECCENTRICITY":"0.00012140","INCLINATION":"53.2149","EPHEMERIS_TYPE":"0","MEAN_MOTION_DOT":"0.00006494","GP_ID":"204718923","TIME_SYSTEM":"UTC","MEAN_MOTION_DDOT":"0.0000000000000","BSTAR":"0.00005071000000","APOAPSIS":"350.655","MEAN_ELEMENT_THEORY":"SGP4","TLE_LINE2":"2 52613  53.2149  14.8802 0001214 105.2594  26.4223 15.73172750  1301","DECAY_DATE":null,"LAUNCH_DATE":"2022-05-14","ARG_OF_PERICENTER":"105.2594","COUNTRY_CODE":"US","RCS_SIZE":null,"OBJECT_TYPE":"PAYLOAD","RA_OF_ASC_NODE":"14.8802","MEAN_ANOMALY":"26.4223","CENTER_NAME":"EARTH","SEMIMAJOR_AXIS":"6727.973","TLE_LINE1":"1 52613U 22052R   22147.91668981  .00006494  00000-0  50710-4 0  9992","ELEMENT_SET_NO":"999","MEAN_MOTION":"15.73172750","PERIAPSIS":"349.021","OBJECT_ID":"2022-052R","NORAD_CAT_ID":"52613","REF_FRAME":"TEME","SITE":"AFETR","FILE":"3468079","OBJECT_NAME":"STARLINK-3921","PERIOD":"91.535","REV_AT_EPOCH":"130","CLASSIFICATION_TYPE":"U","EPOCH":"2022-05-27T22:00:01.999584"},{"OBJECT_TYPE":"PAYLOAD","RA_OF_ASC_NODE":"14.8828","CENTER_NAME":"EARTH","MEAN_ANOMALY":"30.9095","SEMIMAJOR_AXIS":"6727.841","ELEMENT_SET_NO":"999","TLE_LINE1":"1 52614U 22052S   22147.91668981 -.00036127  00000-0 -25389-3 0  9994","MEAN_MOTION":"15.73218944","SITE":"AFETR","REF_FRAME":"TEME","NORAD_CAT_ID":"52614","OBJECT_ID":"2022-052S","PERIAPSIS":"348.875","REV_AT_EPOCH":"130","PERIOD":"91.532","OBJECT_NAME":"STARLINK-3982","FILE":"3468079","EPOCH":"2022-05-27T22:00:01.999584","CLASSIFICATION_TYPE":"U","ECCENTRICITY":"0.00012360","INCLINATION":"53.2151","MEAN_MOTION_DOT":"-0.00036127","EPHEMERIS_TYPE":"0","MEAN_MOTION_DDOT":"0.0000000000000","GP_ID":"204719132","TIME_SYSTEM":"UTC","TLE_LINE2":"2 52614  53.2151  14.8828 0001236 100.1727  30.9095 15.73218944  1302","MEAN_ELEMENT_THEORY":"SGP4","APOAPSIS":"350.538","BSTAR":"-0.00025389000000","LAUNCH_DATE":"2022-05-14","DECAY_DATE":null,"COUNTRY_CODE":"US","ARG_OF_PERICENTER":"100.1727","RCS_SIZE":null},{"RCS_SIZE":null,"ARG_OF_PERICENTER":"89.1256","COUNTRY_CODE":"US","DECAY_DATE":null,"LAUNCH_DATE":"2022-05-14","APOAPSIS":"359.822","BSTAR":"-0.00750490000000","MEAN_ELEMENT_THEORY":"SGP4","TLE_LINE2":"2 52615  53.2174  14.8863 0001143  89.1256  33.3963 15.69946493  1300","TIME_SYSTEM":"UTC","GP_ID":"204719026","MEAN_MOTION_DDOT":"0.0000000000000","EPHEMERIS_TYPE":"0","MEAN_MOTION_DOT":"-0.00831784","ECCENTRICITY":"0.00011430","INCLINATION":"53.2174","CLASSIFICATION_TYPE":"U","EPOCH":"2022-05-27T22:00:01.999584","FILE":"3468079","PERIOD":"91.723","OBJECT_NAME":"STARLINK-4011","REV_AT_EPOCH":"130","OBJECT_ID":"2022-052T","PERIAPSIS":"358.282","NORAD_CAT_ID":"52615","REF_FRAME":"TEME","SITE":"AFETR","ELEMENT_SET_NO":"999","TLE_LINE1":"1 52615U 22052T   22147.91668981 -.00831784  00000-0 -75049-2 0  9994","MEAN_MOTION":"15.69946493","SEMIMAJOR_AXIS":"6737.187","MEAN_ANOMALY":"33.3963","CENTER_NAME":"EARTH","RA_OF_ASC_NODE":"14.8863","OBJECT_TYPE":"PAYLOAD"},{"ECCENTRICITY":"0.00013270","INCLINATION":"53.2151","MEAN_MOTION_DOT":"0.00039001","EPHEMERIS_TYPE":"0","MEAN_MOTION_DDOT":"0.0000000000000","GP_ID":"204719230","TIME_SYSTEM":"UTC","MEAN_ELEMENT_THEORY":"SGP4","TLE_LINE2":"2 52616  53.2151  14.8806 0001327 102.1101  30.1352 15.73179115  1303","BSTAR":"0.00028126000000","APOAPSIS":"350.713","LAUNCH_DATE":"2022-05-14","DECAY_DATE":null,"COUNTRY_CODE":"US","ARG_OF_PERICENTER":"102.1101","RCS_SIZE":null,"OBJECT_TYPE":"PAYLOAD","RA_OF_ASC_NODE":"14.8806","CENTER_NAME":"EARTH","MEAN_ANOMALY":"30.1352","SEMIMAJOR_AXIS":"6727.955","MEAN_MOTION":"15.73179115","TLE_LINE1":"1 52616U 22052U   22147.91668981  .00039001  00000-0  28126-3 0  9990","ELEMENT_SET_NO":"999","NORAD_CAT_ID":"52616","SITE":"AFETR","REF_FRAME":"TEME","OBJECT_ID":"2022-052U","PERIAPSIS":"348.927","REV_AT_EPOCH":"130","FILE":"3468079","OBJECT_NAME":"STARLINK-4015","PERIOD":"91.534","EPOCH":"2022-05-27T22:00:01.999584","CLASSIFICATION_TYPE":"U"},{"LAUNCH_DATE":"2022-05-14","DECAY_DATE":null,"MEAN_ELEMENT_THEORY":"SGP4","TLE_LINE2":"2 52617  53.2148  14.8732 0001160 104.7082  30.5054 15.73202450  1301","BSTAR":"0.00016575000000","APOAPSIS":"350.534","RCS_SIZE":null,"COUNTRY_CODE":"US","ARG_OF_PERICENTER":"104.7082","MEAN_MOTION_DOT":"0.00022707","EPHEMERIS_TYPE":"0","ECCENTRICITY":"0.00011600","INCLINATION":"53.2148","MEAN_MOTION_DDOT":"0.0000000000000","GP_ID":"204718588","TIME_SYSTEM":"UTC","NORAD_CAT_ID":"52617","REF_FRAME":"TEME","SITE":"AFETR","OBJECT_ID":"2022-052V","PERIAPSIS":"348.973","ELEMENT_SET_NO":"999","TLE_LINE1":"1 52617U 22052V   22147.91668981  .00022707  00000-0  16575-3 0  9991","MEAN_MOTION":"15.73202450","EPOCH":"2022-05-27T22:00:01.999584","CLASSIFICATION_TYPE":"U","REV_AT_EPOCH":"130","FILE":"3468079","PERIOD":"91.533","OBJECT_NAME":"STARLINK-3996","RA_OF_ASC_NODE":"14.8732","OBJECT_TYPE":"PAYLOAD","SEMIMAJOR_AXIS":"6727.888","CENTER_NAME":"EARTH","MEAN_ANOMALY":"30.5054"},{"CENTER_NAME":"EARTH","MEAN_ANOMALY":"25.7432","SEMIMAJOR_AXIS":"6727.868","OBJECT_TYPE":"PAYLOAD","RA_OF_ASC_NODE":"14.8787","REV_AT_EPOCH":"130","FILE":"3468079","PERIOD":"91.533","OBJECT_NAME":"STARLINK-3983","EPOCH":"2022-05-27T22:00:01.999584","CLASSIFICATION_TYPE":"U","TLE_LINE1":"1 52618U 22052W   22147.91668981 -.00076469  00000-0 -54518-3 0  9997","MEAN_MOTION":"15.73209436","ELEMENT_SET_NO":"999","NORAD_CAT_ID":"52618","REF_FRAME":"TEME","SITE":"AFETR","OBJECT_ID":"2022-052W","PERIAPSIS":"349.017","MEAN_MOTION_DDOT":"0.0000000000000","GP_ID":"204718796","TIME_SYSTEM":"UTC","INCLINATION":"53.2150","ECCENTRICITY":"0.00010650","MEAN_MOTION_DOT":"-0.00076469","EPHEMERIS_TYPE":"0","COUNTRY_CODE":"US","ARG_OF_PERICENTER":"107.1067","RCS_SIZE":null,"MEAN_ELEMENT_THEORY":"SGP4","TLE_LINE2":"2 52618  53.2150  14.8787 0001065 107.1067  25.7432 15.73209436  1306","BSTAR":"-0.00054518000000","APOAPSIS":"350.450","LAUNCH_DATE":"2022-05-14","DECAY_DATE":null}];
